OBJECT_NAME,OBJECT_ID,EPOCH,MEAN_MOTION,ECCENTRICITY,INCLINATION,RA_OF_ASC_NODE,ARG_OF_PERICENTER,MEAN_ANOMALY,EPHEMERIS_TYPE,CLASSIFICATION_TYPE,NORAD_CAT_ID,ELEMENT_SET_NO,REV_AT_EPOCH,BSTAR,MEAN_MOTION_DOT,MEAN_MOTION_DDOT
STARLINK-31343,2024-041V,2026-07-17T17:04:52.392000,15.27578512,.00010097,43.0009,296.6661,267.2976,92.7760,0,U,59093,999,13420,.30132199E-4,.567E-5,0
STARLINK-31295,2024-041X,2026-07-17T13:25:06.000672,15.27580310,.00005854,42.9996,297.2439,274.8583,85.2202,0,U,59095,999,13413,.26709866E-4,.473E-5,0
STARLINK-31291,2024-041Y,2026-07-17T13:21:24.167808,15.27577567,.0001278,42.9995,297.2210,281.6934,78.3774,0,U,59096,999,13413,.79865E-5,-.42E-6,0
HORACIO,2024-043A,2026-07-17T22:26:25.703808,14.98643683,.00089133,97.8568,330.9183,281.6231,78.3990,0,U,59098,999,12927,.51156435E-4,.553E-5,0
MUSAT-2,2024-043B,2026-07-17T21:30:15.917184,15.08930346,.000643,97.8643,338.2782,220.1509,139.9245,0,U,59099,999,12972,.18196893E-3,.2805E-4,0
ICEYE-X38,2024-043C,2026-07-17T22:28:59.641824,15.13105216,.00020854,97.8443,343.5407,13.0092,347.1191,0,U,59100,999,11632,.1448001E-3,.2494E-4,0
ICEYE-X37,2024-043E,2026-07-17T22:32:17.249856,15.06301618,.00138938,97.8346,336.4328,264.0132,95.9512,0,U,59102,999,12971,.14266071E-3,.2034E-4,0
ICEYE-X36,2024-043F,2026-07-17T22:11:40.908192,15.07247593,.00054917,97.8412,337.5539,202.9988,157.0994,0,U,59103,999,12977,.16065918E-3,.2356E-4,0
PE2_FLT2  (TYVAK-0262),2024-043G,2026-07-17T22:17:13.200000,14.97352907,.00046507,97.8439,329.7017,310.9355,49.1464,0,U,59104,999,12925,.98059625E-4,.1079E-4,0
PE2_FLT1 (TYVAK-0261),2024-043H,2026-07-17T22:17:45.094560,14.97341181,.0004488,97.8425,329.6617,305.0136,55.0664,0,U,59105,999,12925,.90485624E-4,.99E-5,0
RROCI-2,2024-043J,2026-07-17T22:31:18.442560,15.00070397,.00103914,97.8550,331.9657,276.9511,83.0530,0,U,59106,999,12937,.48285216E-4,.54E-5,0
BRO-13,2024-043K,2026-07-17T21:56:16.646784,14.96656989,.00073768,97.8532,330.0367,251.3818,108.6602,0,U,59107,999,12921,.104916E-3,.1137E-4,0
BRO-12,2024-043L,2026-07-17T21:43:28.346880,14.96897193,.0007004,97.8514,330.1973,244.6092,115.4404,0,U,59108,999,12923,.7439695E-4,.794E-5,0
SONATE-2,2024-043Q,2026-07-17T22:19:14.806272,15.60980545,.00067591,97.5566,351.2719,98.0994,262.1029,0,U,59112,999,13268,.30609144E-3,.25616E-3,0
CONTECSAT-1,2024-043V,2026-07-17T22:50:08.500992,15.37142941,.00114397,97.5686,340.8547,122.9082,237.3264,0,U,59117,999,13197,.15475727E-3,.5551E-4,0
TIGER-8,2024-043Y,2026-07-16T22:44:47.188896,15.45186811,.000892,97.5577,347.7638,97.4046,262.8216,0,U,59120,999,13238,.11116E-3,.5185E-4,0
LYNK TOWER 5,2024-043Z,2026-07-17T21:59:15.442080,15.31023229,.00121144,97.5676,337.0065,134.5812,225.6420,0,U,59121,999,13174,.11116346E-3,.3257E-4,0
NUSAT-44 (MARIA MITCHELL),2024-043AA,2026-07-17T22:49:04.023264,15.29882542,.00065962,97.5492,339.6850,123.7270,236.4600,0,U,59122,999,13197,.20609091E-3,.5887E-4,0
LYNK TOWER 6,2024-043AB,2026-07-17T22:06:10.721088,15.31447356,.00114617,97.5639,336.5165,130.9102,229.3134,0,U,59123,999,13173,.99845275E-4,.2956E-4,0
VSP ROSE,2024-043AC,2026-07-17T22:24:28.357920,15.28913660,.00117226,97.5657,335.8135,133.5660,226.6555,0,U,59124,999,13168,.87083819E-4,.2371E-4,0
TRANSPORTER-10 OBJECT AD,2024-043AD,2026-07-17T22:31:06.437280,15.36464778,.00104142,97.5682,340.7866,120.2612,239.9664,0,U,59125,999,13198,.13208421E-3,.462E-4,0
YAM-6,2024-043AE,2026-07-17T21:40:51.490272,15.37629418,.00096241,97.5605,340.9071,116.9634,243.2594,0,U,59126,999,13203,.13785487E-3,.5011E-4,0
JACKAL X-1L-001,2024-043AF,2026-07-17T21:37:17.530176,15.45400889,.00080421,97.5625,345.1402,108.6803,251.5319,0,U,59127,999,13229,.19732945E-3,.9347E-4,0
TRANSPORTER-10 OBJECT AG,2024-043AG,2026-07-17T22:21:14.039136,15.32460554,.00110846,97.5687,338.2915,127.3341,232.8913,0,U,59128,999,13182,.11735397E-3,.3602E-4,0
APEX ARIES 1,2024-043AH,2026-07-17T22:31:01.993728,15.57205785,.00064182,97.5512,350.9224,96.6765,263.5221,0,U,59129,999,13270,.2255846E-3,.16318E-3,0
GHOST-5,2024-043AJ,2026-07-17T21:45:46.344096,15.43655249,.00085885,97.5635,344.5572,108.3522,251.8660,0,U,59130,999,13225,.18559674E-3,.8279E-4,0
MESON-1,2024-043AK,2026-07-17T22:06:35.224992,15.31434839,.00113178,97.5688,337.6916,128.0410,232.1854,0,U,59131,999,13178,.1070364E-3,.3173E-4,0
LIZZIESAT-1 (LS-1),2024-043AL,2026-07-17T21:15:31.478400,15.27668219,.0011882,97.5673,335.1326,132.4335,227.7911,0,U,59132,999,13162,.66235475E-4,.1717E-4,0
GHOST-4,2024-043AM,2026-07-17T21:39:31.453632,15.44113779,.00089507,97.5647,345.0512,107.7350,252.4876,0,U,59133,999,13227,.18025761E-3,.8165E-4,0
JACKAL X-1L-002,2024-043AN,2026-07-17T21:18:55.428192,15.47192579,.00080743,97.5614,346.1769,100.9759,259.2399,0,U,59134,999,13236,.21500842E-3,.10845E-3,0
VSP RF A1,2024-043AP,2026-07-17T20:35:52.684224,15.24509195,.00026866,97.5474,335.4933,107.0317,253.1214,0,U,59135,999,13166,.4046382E-3,.9882E-4,0
VSP RF C1,2024-043AQ,2026-07-17T22:36:18.042336,15.29372167,.00069136,97.5648,337.3669,121.7416,238.4499,0,U,59136,999,13178,.3862652E-4,.1022E-4,0
VSP RF B1,2024-043AR,2026-07-18T00:43:41.923776,15.25796545,.0006276,97.5658,336.3595,118.1176,242.0697,0,U,59137,999,13172,.84172E-4,.2076E-4,0
TIGER-7,2024-043AV,2026-07-17T16:30:15.728256,15.49382049,.00067218,97.5520,351.0559,70.1553,290.0422,0,U,59141,999,13269,.11755218E-3,.635E-4,0
LEMUR-2-JOHNNYTRUONG,2024-043BA,2026-07-17T21:46:42.627648,15.62709855,.00039327,97.5403,352.5709,86.3859,273.7848,0,U,59146,999,13283,.31237698E-3,.27939E-3,0
HAMMER,2024-043BC,2026-07-17T22:40:50.153088,15.54177369,.00049344,97.5465,349.2680,98.9237,261.2574,0,U,59148,999,13258,.26487532E-3,.1715E-3,0
STARLINK-31312,2024-044A,2026-07-17T13:35:45.974112,15.27578491,.0000849,43.0032,42.8548,289.9177,70.1583,0,U,59152,999,13404,.15021E-4,.151E-5,0
STARLINK-31308,2024-044B,2026-07-17T22:01:01.527456,15.27581017,.0001408,43.0020,44.7358,268.3191,91.7499,0,U,59153,999,13406,.32799366E-4,.641E-5,0
STARLINK-31270,2024-044C,2026-07-17T17:41:22.759008,15.27576615,.00008235,43.0008,92.6772,271.2461,88.8296,0,U,59154,999,13348,-.39878734E-4,-.1359E-4,0
STARLINK-31341,2024-044D,2026-07-17T18:01:01.859808,15.27567307,.00010202,43.0016,96.2248,274.2580,85.8155,0,U,59155,999,13341,.16277603E-4,.186E-5,0
STARLINK-31338,2024-044E,2026-07-17T10:04:42.151584,15.27578732,.0000452,43.0010,98.0399,309.1667,50.9145,0,U,59156,999,13336,-.5888E-4,-.1881E-4,0
STARLINK-31334,2024-044F,2026-07-17T17:44:22.661088,15.27570837,.00010543,43.0008,96.1303,241.6918,118.3827,0,U,59157,999,13341,.8911026E-5,-.17E-6,0
STARLINK-31297,2024-044G,2026-07-17T17:46:55.974432,15.27569163,.00008818,43.0008,92.7044,267.9372,92.1378,0,U,59158,999,13348,-.22598178E-4,-.883E-5,0
STARLINK-31182,2024-044H,2026-07-17T18:27:25.738560,15.27572021,.00014551,43.0038,92.0588,276.7143,83.3543,0,U,59159,999,13349,-.6815121E-5,-.45E-5,0
STARLINK-31327,2024-044J,2026-07-17T17:50:37.624992,15.27571609,.00011202,43.0029,92.7257,271.3897,88.6826,0,U,59160,999,13348,.9214254E-5,-.9E-7,0
STARLINK-31256,2024-044K,2026-07-17T23:15:26.509248,15.27576950,.00013926,43.0037,90.9695,270.0539,90.0153,0,U,59161,999,13352,.48662767E-4,.1077E-4,0
STARLINK-31272,2024-044L,2026-07-17T23:20:59.781696,15.27576869,.00010866,42.9996,91.0056,270.3060,89.7667,0,U,59162,999,13349,.13522008E-4,.11E-5,0
STARLINK-31278,2024-044M,2026-07-17T17:09:55.071072,15.27575803,.00019029,43.0031,92.5110,270.0169,90.0464,0,U,59163,999,13345,.3524773E-5,-.165E-5,0
STARLINK-31309,2024-044N,2026-07-17T21:57:56.405088,15.27576097,.00011966,43.0012,91.4311,270.2253,89.8462,0,U,59164,999,13351,.1070052E-4,.32E-6,0
STARLINK-31325,2024-044P,2026-07-17T23:35:48.264864,15.27534501,.00008315,43.0011,91.0791,248.5710,111.5053,0,U,59165,999,13349,.26443914E-3,.7012E-4,0
STARLINK-31342,2024-044Q,2026-07-17T23:41:20.990400,15.27570741,.00010908,43.0027,91.1102,259.8164,100.2565,0,U,59166,999,13352,.4627471E-5,-.135E-5,0
STARLINK-31298,2024-044R,2026-07-17T03:22:50.989152,15.27576883,.00024305,43.0050,95.9342,252.8856,107.1729,0,U,59167,999,13336,.24535945E-4,.413E-5,0
STARLINK-31322,2024-044S,2026-07-17T18:07:17.047488,15.27571753,.00009117,43.0033,92.8049,272.1588,87.9159,0,U,59168,999,13348,-.17544058E-4,-.745E-5,0
STARLINK-31329,2024-044T,2026-07-17T17:56:10.657248,15.27573762,.00007448,43.0024,92.7514,278.6964,81.3804,0,U,59169,999,13345,-.15531633E-4,-.689E-5,0
STARLINK-31340,2024-044U,2026-07-17T22:38:29.457600,15.27578256,.00013322,43.0008,51.8676,248.1808,111.8902,0,U,59170,999,13394,.13924914E-4,.121E-5,0
STARLINK-31344,2024-044V,2026-07-17T18:01:43.884768,15.27571397,.00011111,43.0017,92.7782,260.5054,99.5672,0,U,59171,999,13348,-.36782054E-4,-.1274E-4,0
STARLINK-31348,2024-044W,2026-07-17T22:02:53.180448,15.27581930,.00001076,42.9960,44.7433,254.3539,105.7300,0,U,59172,999,13402,.35645923E-3,.9561E-4,0
STARLINK-31289,2024-044X,2026-07-17T01:54:13.836384,15.27587816,.00009285,43.0017,96.3359,253.0399,107.0351,0,U,59173,999,13338,.47556695E-4,.1047E-4,0
STARLINK-31283,2024-044Y,2026-07-17T22:00:01.999584,15.27567048,.00014264,43.0018,44.6585,272.2736,119.3617,0,U,59174,999,586,.68989013E-3,.18763E-3,0
EXO-0,2023-174DK,2026-07-17T18:36:24.262848,15.35185744,.00102933,97.3810,278.9636,67.7369,292.4965,0,U,59175,999,14973,.14414101E-3,.4849E-4,0
STARLINK-31439,2024-045A,2026-07-17T21:37:20.228448,15.27586288,.00013089,43.0024,73.8857,269.2995,90.7707,0,U,59178,999,6944,.27184615E-3,.7227E-4,0
STARLINK-31410,2024-045B,2026-07-17T23:08:56.864256,15.27577091,.00013253,43.0002,76.9627,271.1590,88.9110,0,U,59179,999,13308,.34154846E-3,.9147E-4,0
STARLINK-31395,2024-045C,2026-07-17T17:23:47.189472,15.27570042,.00012532,43.0062,78.5998,269.3313,90.7395,0,U,59180,999,13304,-.1014148E-5,-.29E-5,0
STARLINK-31486,2024-045D,2026-07-17T17:00:25.586208,15.27571150,.00013023,43.0038,75.0202,278.5749,81.4956,0,U,59181,999,13308,-.37152786E-4,-.1284E-4,0
